{
  "type": "FeatureCollection",
  "name": "jiangxinzhou-ferry-terminals-v13",
  "crs": { "type": "name", "properties": { "name": "EPSG:4326" } },
  "features": [
    {
      "type": "Feature",
      "id": "qigan-pier",
      "geometry": { "type": "Point", "coordinates": [118.6975913, 32.009866] },
      "properties": {
        "id": "qigan-pier",
        "name": { "zh": "旗杆码头（旗杆渡口）", "en": "Qigan Ferry Terminal" },
        "bank": "jiangxinzhou",
        "role": "island-terminal",
        "modelLod1": "/models/jiangxinzhou-v2/ferry-qigan-pier-v13-lod1.glb",
        "modelLod2": "/models/jiangxinzhou-v2/ferry-qigan-pier-v13-lod2.glb",
        "placement": {
          "waterAnchor": [118.6975913, 32.009866],
          "landEntranceAnchor": [118.6969909, 32.0098559],
          "structureAnchor": [118.69705785, 32.0098559],
          "headingDeg": 0,
          "berthOffsetM": [16, 0],
          "cameraBoundsM": [92, 44, 34],
          "sourceAgreement": "osm-route-plus-named-building-plus-official-photo"
        },
        "confidence": "triangulated",
        "sourceCrs": "EPSG:4326",
        "sourceRefs": ["ferry-official-2024", "ferry-media-2024", "ferry-osm-qigan-building", "ferry-position-audit-v13"]
      }
    },
    {
      "type": "Feature",
      "id": "mianhuadi-pier",
      "geometry": { "type": "Point", "coordinates": [118.6999968, 32.0087366] },
      "properties": {
        "id": "mianhuadi-pier",
        "name": { "zh": "棉花堤渡口", "en": "Mianhuadi Ferry Pier" },
        "bank": "mainland-east-bank",
        "role": "mainland-terminal",
        "modelLod1": "/models/jiangxinzhou-v2/ferry-mianhuadi-pier-v13-lod1.glb",
        "modelLod2": "/models/jiangxinzhou-v2/ferry-mianhuadi-pier-v13-lod2.glb",
        "placement": {
          "waterAnchor": [118.6999968, 32.0087366],
          "landEntranceAnchor": [118.700228, 32.008621],
          "structureAnchor": [118.700228, 32.008621],
          "headingDeg": 151,
          "berthOffsetM": [-14, -7.8],
          "cameraBoundsM": [82, 42, 32],
          "sourceAgreement": "osm-route-plus-official-route-context"
        },
        "confidence": "estimated",
        "sourceCrs": "EPSG:4326",
        "sourceRefs": ["ferry-official-2024", "ferry-map-crosscheck-2026", "ferry-position-audit-v13"]
      }
    }
  ],
  "route": {
    "id": "ferry-qigan",
    "coordinates": [
      [118.6975913, 32.009866],
      [118.6987921, 32.0093063],
      [118.6999968, 32.0087366]
    ],
    "measuredGeometryLengthM": 260,
    "lengthStatus": "mapped",
    "geometryKind": "direct-water-connection",
    "sourceAgreement": "osm-route-and-public-poi",
    "confidence": "triangulated",
    "osmWayId": 137693220,
    "note": "The mapped water connection follows OpenStreetMap way 137693220 and measures about 260m. The cited government and tourism sources do not publish an official ferry-route length."
  }
}
