{
  "type": "FeatureCollection",
  "features": [
    {
      "type": "Feature",
      "id": "jiangxinzhou-island",
      "geometry": {
        "type": "Polygon",
        "coordinates": [
          [
            [
              118.676242,
              32.014276
            ],
            [
              118.675652,
              32.014399
            ],
            [
              118.675392,
              32.014185
            ],
            [
              118.674678,
              32.012952
            ],
            [
              118.674552,
              32.012136
            ],
            [
              118.67327,
              32.010228
            ],
            [
              118.673359,
              32.008822
            ],
            [
              118.672729,
              32.008265
            ],
            [
              118.67205,
              32.006868
            ],
            [
              118.671919,
              32.005736
            ],
            [
              118.671055,
              32.004368
            ],
            [
              118.669226,
              31.999251
            ],
            [
              118.666511,
              31.994219
            ],
            [
              118.664196,
              31.988129
            ],
            [
              118.662949,
              31.985531
            ],
            [
              118.662069,
              31.984457
            ],
            [
              118.662068,
              31.983609
            ],
            [
              118.660609,
              31.982104
            ],
            [
              118.660097,
              31.980962
            ],
            [
              118.662504,
              31.98163
            ],
            [
              118.668609,
              31.986077
            ],
            [
              118.677357,
              31.991178
            ],
            [
              118.68619,
              31.994578
            ],
            [
              118.693076,
              31.996482
            ],
            [
              118.697917,
              31.998955
            ],
            [
              118.698692,
              31.999625
            ],
            [
              118.698714,
              32.001573
            ],
            [
              118.697614,
              32.005215
            ],
            [
              118.697166,
              32.00912
            ],
            [
              118.697501,
              32.019202
            ],
            [
              118.697847,
              32.020937
            ],
            [
              118.699168,
              32.024032
            ],
            [
              118.702458,
              32.028105
            ],
            [
              118.703062,
              32.030069
            ],
            [
              118.704137,
              32.030822
            ],
            [
              118.707981,
              32.037045
            ],
            [
              118.716698,
              32.053258
            ],
            [
              118.718484,
              32.057379
            ],
            [
              118.721671,
              32.066958
            ],
            [
              118.722214,
              32.070443
            ],
            [
              118.721942,
              32.073303
            ],
            [
              118.721126,
              32.072761
            ],
            [
              118.720721,
              32.071656
            ],
            [
              118.719579,
              32.070104
            ],
            [
              118.716923,
              32.067388
            ],
            [
              118.710282,
              32.059162
            ],
            [
              118.695581,
              32.046026
            ],
            [
              118.693896,
              32.044157
            ],
            [
              118.692472,
              32.042091
            ],
            [
              118.689444,
              32.035963
            ],
            [
              118.686378,
              32.030763
            ],
            [
              118.675912,
              32.014897
            ],
            [
              118.675816,
              32.014585
            ],
            [
              118.67626,
              32.014299
            ],
            [
              118.676242,
              32.014276
            ]
          ]
        ]
      },
      "properties": {
        "id": "jiangxinzhou-island",
        "name": {
          "zh": "江心洲",
          "en": "Jiangxinzhou"
        },
        "officialAreaKm2": 15.21,
        "measuredGeometryAreaKm2": 15.079897,
        "measuredGeometryBoundaryKm": 25.011622,
        "source": "OpenStreetMap boundary cross-checked with Amap and Google Earth",
        "sourceCrs": "EPSG:4326",
        "confidence": "triangulated",
        "status": "existing"
      }
    }
  ]
}
